LANDSAT 9               
1 49260U 21088A   24197.80602088  .00000720  00000+0  16982-3 0  9992
2 49260  98.2306 267.0359 0001302  94.4491 265.6856 14.57103613148855
